{
  "type": "FeatureCollection",
  "features": [
    {
      "type": "Feature",
      "properties": {
        "norad_id": 31952,
        "name": "FENGYUN 1C DEB",
        "group": "fengyun-1c-debris",
        "lat": -59.08662311243152,
        "lon": 133.21924940722934,
        "alt_km": 665.9998731343003,
        "timestamp": "2025-12-25T22:42:17.296589+00:00",
        "meta_object_name": "FENGYUN 1C DEB",
        "meta_object_id": "1999-025CND",
        "meta_epoch": "2025-12-24T18:53:41.624448",
        "meta_mean_motion": 14.53547488,
        "meta_eccentricity": 0.01139982,
        "meta_inclination": 98.9559,
        "meta_ra_of_asc_node": 116.7118,
        "meta_arg_of_pericenter": 255.8028,
        "meta_mean_anomaly": 103.048,
        "meta_ephemeris_type": 0,
        "meta_classification_type": "U",
        "meta_norad_cat_id": 31952,
        "meta_element_set_no": 999,
        "meta_rev_at_epoch": 97384,
        "meta_bstar": 0.00057748625,
        "meta_mean_motion_dot": 2.569e-05,
        "meta_mean_motion_ddot": 0,
        "tle_line1": "1 31952U 99025CND 25358.78728732  .00002569  00000+0  57749-3 0  9998",
        "tle_line2": "2 31952  98.9559 116.7118 0113998 255.8028 103.0480 14.53547488973849"
      },
      "geometry": {
        "type": "Point",
        "coordinates": [
          133.21924940722934,
          -59.08662311243152
        ]
      }
    },
    {
      "type": "Feature",
      "properties": {
        "norad_id": 31955,
        "name": "FENGYUN 1C DEB",
        "group": "fengyun-1c-debris",
        "lat": 60.88918892862461,
        "lon": 75.49125833752586,
        "alt_km": 645.6466614443616,
        "timestamp": "2025-12-25T22:42:17.296600+00:00",
        "meta_object_name": "FENGYUN 1C DEB",
        "meta_object_id": "1999-025CNG",
        "meta_epoch": "2025-12-21T21:41:07.179648",
        "meta_mean_motion": 14.64028697,
        "meta_eccentricity": 0.00435771,
        "meta_inclination": 99.2807,
        "meta_ra_of_asc_node": 233.8648,
        "meta_arg_of_pericenter": 152.6411,
        "meta_mean_anomaly": 271.1392,
        "meta_ephemeris_type": 0,
        "meta_classification_type": "U",
        "meta_norad_cat_id": 31955,
        "meta_element_set_no": 999,
        "meta_rev_at_epoch": 96691,
        "meta_bstar": 0.0014947189,
        "meta_mean_motion_dot": 7.894e-05,
        "meta_mean_motion_ddot": 0,
        "tle_line1": "1 31955U 99025CNG 25355.90355532  .00007894  00000+0  14947-2 0  9994",
        "tle_line2": "2 31955  99.2807 233.8648 0043577 152.6411 271.1392 14.64028697966913"
      },
      "geometry": {
        "type": "Point",
        "coordinates": [
          75.49125833752586,
          60.88918892862461
        ]
      }
    },
    {
      "type": "Feature",
      "properties": {
        "norad_id": 31959,
        "name": "FENGYUN 1C DEB",
        "group": "fengyun-1c-debris",
        "lat": 69.75598003094527,
        "lon": -152.9357611340039,
        "alt_km": 714.496346461402,
        "timestamp": "2025-12-25T22:42:17.296610+00:00",
        "meta_object_name": "FENGYUN 1C DEB",
        "meta_object_id": "1999-025CNL",
        "meta_epoch": "2025-12-21T22:06:57.352032",
        "meta_mean_motion": 14.46896532,
        "meta_eccentricity": 0.00273534,
        "meta_inclination": 98.5099,
        "meta_ra_of_asc_node": 226.9733,
        "meta_arg_of_pericenter": 126.577,
        "meta_mean_anomaly": 233.7945,
        "meta_ephemeris_type": 0,
        "meta_classification_type": "U",
        "meta_norad_cat_id": 31959,
        "meta_element_set_no": 999,
        "meta_rev_at_epoch": 64486,
        "meta_bstar": 0.0023827795,
        "meta_mean_motion_dot": 8.652e-05,
        "meta_mean_motion_ddot": 0,
        "tle_line1": "1 31959U 99025CNL 25355.92149713  .00008652  00000+0  23828-2 0  9993",
        "tle_line2": "2 31959  98.5099 226.9733 0027353 126.5770 233.7945 14.46896532644868"
      },
      "geometry": {
        "type": "Point",
        "coordinates": [
          -152.9357611340039,
          69.75598003094527
        ]
      }
    },
    {
      "type": "Feature",
      "properties": {
        "norad_id": 31964,
        "name": "FENGYUN 1C DEB",
        "group": "fengyun-1c-debris",
        "lat": 51.11345327803577,
        "lon": 113.25141243011939,
        "alt_km": 683.3404787970485,
        "timestamp": "2025-12-25T22:42:17.296620+00:00",
        "meta_object_name": "FENGYUN 1C DEB",
        "meta_object_id": "1999-025CNR",
        "meta_epoch": "2025-12-23T02:58:25.746240",
        "meta_mean_motion": 14.58706281,
        "meta_eccentricity": 0.00284078,
        "meta_inclination": 98.7007,
        "meta_ra_of_asc_node": 121.2429,
        "meta_arg_of_pericenter": 357.3424,
        "meta_mean_anomaly": 2.7619,
        "meta_ephemeris_type": 0,
        "meta_classification_type": "U",
        "meta_norad_cat_id": 31964,
        "meta_element_set_no": 999,
        "meta_rev_at_epoch": 67661,
        "meta_bstar": 0.0025118016,
        "meta_mean_motion_dot": 0.0001175,
        "meta_mean_motion_ddot": 0,
        "tle_line1": "1 31964U 99025CNR 25357.12390910  .00011750  00000+0  25118-2 0  9997",
        "tle_line2": "2 31964  98.7007 121.2429 0028407 357.3424   2.7619 14.58706281676619"
      },
      "geometry": {
        "type": "Point",
        "coordinates": [
          113.25141243011939,
          51.11345327803577
        ]
      }
    },
    {
      "type": "Feature",
      "properties": {
        "norad_id": 31966,
        "name": "FENGYUN 1C DEB",
        "group": "fengyun-1c-debris",
        "lat": 78.6720280495465,
        "lon": 26.312106452651193,
        "alt_km": 705.1343155520963,
        "timestamp": "2025-12-25T22:42:17.296630+00:00",
        "meta_object_name": "FENGYUN 1C DEB",
        "meta_object_id": "1999-025CNT",
        "meta_epoch": "2025-12-24T05:21:16.195104",
        "meta_mean_motion": 14.67701471,
        "meta_eccentricity": 0.00860415,
        "meta_inclination": 99.0179,
        "meta_ra_of_asc_node": 151.9727,
        "meta_arg_of_pericenter": 239.292,
        "meta_mean_anomaly": 119.9784,
        "meta_ephemeris_type": 0,
        "meta_classification_type": "U",
        "meta_norad_cat_id": 31966,
        "meta_element_set_no": 999,
        "meta_rev_at_epoch": 65911,
        "meta_bstar": 0.0014485658,
        "meta_mean_motion_dot": 8.665e-05,
        "meta_mean_motion_ddot": 0,
        "tle_line1": "1 31966U 99025CNT 25358.22310411  .00008665  00000+0  14486-2 0  9996",
        "tle_line2": "2 31966  99.0179 151.9727 0086041 239.2920 119.9784 14.67701471659119"
      },
      "geometry": {
        "type": "Point",
        "coordinates": [
          26.312106452651193,
          78.6720280495465
        ]
      }
    },
    {
      "type": "Feature",
      "properties": {
        "norad_id": 31972,
        "name": "FENGYUN 1C DEB",
        "group": "fengyun-1c-debris",
        "lat": 15.264904661932565,
        "lon": -135.61391585411354,
        "alt_km": 922.9716305961292,
        "timestamp": "2025-12-25T22:42:17.296641+00:00",
        "meta_object_name": "FENGYUN 1C DEB",
        "meta_object_id": "1999-025CNZ",
        "meta_epoch": "2025-12-24T01:42:34.636608",
        "meta_mean_motion": 14.07519501,
        "meta_eccentricity": 0.00764333,
        "meta_inclination": 99.21,
        "meta_ra_of_asc_node": 39.9378,
        "meta_arg_of_pericenter": 0.4023,
        "meta_mean_anomaly": 29.3212,
        "meta_ephemeris_type": 0,
        "meta_classification_type": "U",
        "meta_norad_cat_id": 31972,
        "meta_element_set_no": 999,
        "meta_rev_at_epoch": 95120,
        "meta_bstar": 0.00020159041,
        "meta_mean_motion_dot": 3.02e-06,
        "meta_mean_motion_ddot": 0,
        "tle_line1": "1 31972U 99025CNZ 25358.07123422  .00000302  00000+0  20159-3 0  9995",
        "tle_line2": "2 31972  99.2100  39.9378 0076433   0.4023  29.3212 14.07519501951205"
      },
      "geometry": {
        "type": "Point",
        "coordinates": [
          -135.61391585411354,
          15.264904661932565
        ]
      }
    },
    {
      "type": "Feature",
      "properties": {
        "norad_id": 31974,
        "name": "FENGYUN 1C DEB",
        "group": "fengyun-1c-debris",
        "lat": -60.41760339289076,
        "lon": 175.5231788957863,
        "alt_km": 752.442897950451,
        "timestamp": "2025-12-25T22:42:17.296650+00:00",
        "meta_object_name": "FENGYUN 1C DEB",
        "meta_object_id": "1999-025CPB",
        "meta_epoch": "2025-12-24T23:44:15.961632",
        "meta_mean_motion": 14.29664564,
        "meta_eccentricity": 0.0071341,
        "meta_inclination": 98.3795,
        "meta_ra_of_asc_node": 9.6517,
        "meta_arg_of_pericenter": 266.2671,
        "meta_mean_anomaly": 93.0352,
        "meta_ephemeris_type": 0,
        "meta_classification_type": "U",
        "meta_norad_cat_id": 31974,
        "meta_element_set_no": 999,
        "meta_rev_at_epoch": 69597,
        "meta_bstar": 0.0024190503,
        "meta_mean_motion_dot": 6.335e-05,
        "meta_mean_motion_ddot": 0,
        "tle_line1": "1 31974U 99025CPB 25358.98907363  .00006335  00000+0  24191-2 0  9992",
        "tle_line2": "2 31974  98.3795   9.6517 0071341 266.2671  93.0352 14.29664564695976"
      },
      "geometry": {
        "type": "Point",
        "coordinates": [
          175.5231788957863,
          -60.41760339289076
        ]
      }
    }
  ]
}